0 FENGYUN 1C DEB
1 30050U 99025PB  13282.03900041  .00000479  00000-0  44405-3 0   155
2 30050 096.8184 331.0205 0185166 029.1108 034.9165 13.77722525338506
0 FENGYUN 1C DEB
1 30050U 99025PB  13283.12611022  .00000448  00000-0  41689-3 0   162
2 30050 096.8183 331.8027 0185080 026.0293 026.7789 13.77723345338659
0 FENGYUN 1C DEB
1 30050U 99025PB  13286.10347394  .00000473  00000-0  43946-3 0   189
2 30050 096.8178 333.9452 0184858 017.5848 033.9765 13.77725432339060
0 FENGYUN 1C DEB
1 30050U 99025PB  13287.84805861  .00000552  00000-0  50973-3 0   196
2 30050 096.8175 335.2006 0184737 012.6203 046.8353 13.77727310339304
0 FENGYUN 1C DEB
1 30050U 99025PB  13288.86315612  .00000580  00000-0  53403-3 0   203
2 30050 096.8173 335.9312 0184689 009.7335 041.5607 13.77728452339445
0 FENGYUN 1C DEB
1 30050U 99025PB  13289.87983516  .00000552  00000-0  50941-3 0   213
2 30050 096.8171 336.6628 0184628 006.8387 044.1366 13.77729635339589
0 FENGYUN 1C DEB
1 30050U 99025PB  13291.42067980  .00000543  00000-0  50220-3 0   226
2 30050 096.8170 337.7712 0184551 002.4518 126.5034 13.77731350339794
0 FENGYUN 1C DEB
1 30050U 99025PB  13292.85806544  .00000592  00000-0  54501-3 0   232
2 30050 096.8170 338.8053 0184504 358.3576 055.7404 13.77732772339994
0 FENGYUN 1C DEB
1 30050U 99025PB  13293.87389384  .00000593  00000-0  54610-3 0   246
2 30050 096.8171 339.5362 0184468 355.4640 054.1147 13.77734062340134
0 FENGYUN 1C DEB
1 30050U 99025PB  13295.10893473  .00000610  00000-0  56163-3 0   259
2 30050 096.8172 340.4246 0184430 351.9474 059.7587 13.77735506340304
